[{"OBJECT_NAME":"LEO 1 (LEO VANTAGE 1)","OBJECT_ID":"2018-004C","EPOCH":"2026-03-09T16:57:06.140448","MEAN_MOTION":14.67184901,"ECCENTRICITY":0.03529424,"INCLINATION":99.2469,"RA_OF_ASC_NODE":334.0284,"ARG_OF_PERICENTER":24.854,"MEAN_ANOMALY":336.9207,"EPHEMERIS_TYPE":0,"CLASSIFICATION_TYPE":"U","NORAD_CAT_ID":43113,"ELEMENT_SET_NO":999,"REV_AT_EPOCH":42289,"BSTAR":0.000396029,"MEAN_MOTION_DOT":5.709e-5,"MEAN_MOTION_DDOT":0},{"OBJECT_NAME":"STARLINK-32370","OBJECT_ID":"2024-191Q","EPOCH":"2026-03-09T07:42:22.621824","MEAN_MOTION":15.27602679,"ECCENTRICITY":0.00011443,"INCLINATION":43.0018,"RA_OF_ASC_NODE":156.2721,"ARG_OF_PERICENTER":255.1076,"MEAN_ANOMALY":104.9649,"EPHEMERIS_TYPE":0,"CLASSIFICATION_TYPE":"U","NORAD_CAT_ID":61635,"ELEMENT_SET_NO":999,"REV_AT_EPOCH":7748,"BSTAR":-0.00032540514,"MEAN_MOTION_DOT":-9.212e-5,"MEAN_MOTION_DDOT":0}]
