LEO 1 (LEO VANTAGE 1)   
1 43113U 18004C   26068.70632107  .00005709  00000+0  39603-3 0  9997
2 43113  99.2469 334.0284 0352942  24.8540 336.9207 14.67184901422891
STARLINK-32370          
1 61635U 24191Q   26068.32109516 -.00009212  00000+0 -32541-3 0  9990
2 61635  43.0018 156.2721 0001144 255.1076 104.9649 15.27602679 77483
